{"type": "FeatureCollection", "features": [ {"type": "Feature", "properties": {"norad_id": 30597, "name": "FENGYUN 1C DEB", "group": "fengyun-1c-debris", "lat": 79.37932485149152, "lon": -125.49958470657458, "alt_km": 562.4079225829837, "timestamp": "2025-12-20T03:42:47.670591+00:00", "meta": {"OBJECT_NAME": "FENGYUN 1C DEB", "OBJECT_ID": "1999-025AMC", "EPOCH": "2025-12-17T19:02:22.144704", "MEAN_MOTION": 14.92890617, "ECCENTRICITY": 0.00460861, "INCLINATION": 98.9433, "RA_OF_ASC_NODE": 288.9378, "ARG_OF_PERICENTER": 146.589, "MEAN_ANOMALY": 213.8249, "EPHEMERIS_TYPE": 0, "CLASSIFICATION_TYPE": "U", "NORAD_CAT_ID": 30597, "ELEMENT_SET_NO": 999, "REV_AT_EPOCH": 98612, "BSTAR": 0.0033758999, "MEAN_MOTION_DOT": 0.00035818, "MEAN_MOTION_DDOT": 0}, "tle": {"line1": "1 30597U 99025AMC 25351.79331186  .00035818  00000+0  33759-2 0  9996", "line2": "2 30597  98.9433 288.9378 0046086 146.5890 213.8249 14.92890617986126"}}, "geometry": {"type": "Point", "coordinates": [-125.49958470657458, 79.37932485149152]}}, {"type": "Feature", "properties": {"norad_id": 30599, "name": "FENGYUN 1C DEB", "group": "fengyun-1c-debris", "lat": 25.075807403470417, "lon": 1.5192532057752854, "alt_km": 718.9291582252117, "timestamp": "2025-12-20T03:42:47.670622+00:00", "meta": {"OBJECT_NAME": "FENGYUN 1C DEB", "OBJECT_ID": "1999-025AME", "EPOCH": "2025-12-19T00:32:11.843520", "MEAN_MOTION": 14.19720682, "ECCENTRICITY": 0.03019906, "INCLINATION": 98.6023, "RA_OF_ASC_NODE": 4.4788, "ARG_OF_PERICENTER": 326.5587, "MEAN_ANOMALY": 31.6834, "EPHEMERIS_TYPE": 0, "CLASSIFICATION_TYPE": "U", "NORAD_CAT_ID": 30599, "ELEMENT_SET_NO": 999, "REV_AT_EPOCH": 97256, "BSTAR": 0.000580164, "MEAN_MOTION_DOT": 1.887e-05, "MEAN_MOTION_DDOT": 0}, "tle": {"line1": "1 30599U 99025AME 25353.02235930  .00001887  00000+0  58016-3 0  9999", "line2": "2 30599  98.6023   4.4788 0301990 326.5587  31.6834 14.19720682972569"}}, "geometry": {"type": "Point", "coordinates": [1.5192532057752854, 25.075807403470417]}}, {"type": "Feature", "properties": {"norad_id": 30600, "name": "FENGYUN 1C DEB", "group": "fengyun-1c-debris", "lat": 20.64868419491218, "lon": 121.5785327587685, "alt_km": 768.9140648029124, "timestamp": "2025-12-20T03:42:47.670648+00:00", "meta": {"OBJECT_NAME": "FENGYUN 1C DEB", "OBJECT_ID": "1999-025AMF", "EPOCH": "2025-12-18T03:09:43.662240", "MEAN_MOTION": 14.07587233, "ECCENTRICITY": 0.03271299, "INCLINATION": 98.3881, "RA_OF_ASC_NODE": 296.5082, "ARG_OF_PERICENTER": 231.9339, "MEAN_ANOMALY": 125.1904, "EPHEMERIS_TYPE": 0, "CLASSIFICATION_TYPE": "U", "NORAD_CAT_ID": 30600, "ELEMENT_SET_NO": 999, "REV_AT_EPOCH": 94508, "BSTAR": 0.0022757816, "MEAN_MOTION_DOT": 6.229e-05, "MEAN_MOTION_DDOT": 0}, "tle": {"line1": "1 30600U 99025AMF 25352.13175535  .00006229  00000+0  22758-2 0  9995", "line2": "2 30600  98.3881 296.5082 0327129 231.9339 125.1904 14.07587233945082"}}, "geometry": {"type": "Point", "coordinates": [121.5785327587685, 20.64868419491218]}}, {"type": "Feature", "properties": {"norad_id": 30602, "name": "FENGYUN 1C DEB", "group": "fengyun-1c-debris", "lat": -76.05534402104966, "lon": 49.26919537110784, "alt_km": 606.6662371788316, "timestamp": "2025-12-20T03:42:47.670661+00:00", "meta": {"OBJECT_NAME": "FENGYUN 1C DEB", "OBJECT_ID": "1999-025AMH", "EPOCH": "2025-12-19T10:43:42.229920", "MEAN_MOTION": 14.9214779, "ECCENTRICITY": 0.0012674, "INCLINATION": 99.0328, "RA_OF_ASC_NODE": 268.3004, "ARG_OF_PERICENTER": 100.806, "MEAN_ANOMALY": 319.0552, "EPHEMERIS_TYPE": 0, "CLASSIFICATION_TYPE": "U", "NORAD_CAT_ID": 30602, "ELEMENT_SET_NO": 999, "REV_AT_EPOCH": 97905, "BSTAR": 0.0046097, "MEAN_MOTION_DOT": 0.00047205, "MEAN_MOTION_DDOT": 0}, "tle": {"line1": "1 30602U 99025AMH 25353.44701655  .00047205  00000+0  46097-2 0  9991", "line2": "2 30602  99.0328 268.3004 0012674 100.8060 319.0552 14.92147790979051"}}, "geometry": {"type": "Point", "coordinates": [49.26919537110784, -76.05534402104966]}}, {"type": "Feature", "properties": {"norad_id": 30603, "name": "FENGYUN 1C DEB", "group": "fengyun-1c-debris", "lat": -30.154250869905578, "lon": -168.6301901529829, "alt_km": 833.0895630282985, "timestamp": "2025-12-20T03:42:47.670672+00:00", "meta": {"OBJECT_NAME": "FENGYUN 1C DEB", "OBJECT_ID": "1999-025AMJ", "EPOCH": "2025-12-19T00:49:13.690272", "MEAN_MOTION": 13.84140889, "ECCENTRICITY": 0.01834456, "INCLINATION": 98.4086, "RA_OF_ASC_NODE": 15.2954, "ARG_OF_PERICENTER": 188.206, "MEAN_ANOMALY": 200.8745, "EPHEMERIS_TYPE": 0, "CLASSIFICATION_TYPE": "U", "NORAD_CAT_ID": 30603, "ELEMENT_SET_NO": 999, "REV_AT_EPOCH": 94963, "BSTAR": 0.00099054553, "MEAN_MOTION_DOT": 1.22e-05, "MEAN_MOTION_DDOT": 0}, "tle": {"line1": "1 30603U 99025AMJ 25353.03418623  .00001220  00000+0  99055-3 0  9997", "line2": "2 30603  98.4086  15.2954 0183445 188.2060 200.8745 13.84140889949638"}}, "geometry": {"type": "Point", "coordinates": [-168.6301901529829, -30.154250869905578]}}, {"type": "Feature", "properties": {"norad_id": 30604, "name": "FENGYUN 1C DEB", "group": "fengyun-1c-debris", "lat": -25.969306232325128, "lon": -155.4613845044548, "alt_km": 930.9635974157354, "timestamp": "2025-12-20T03:42:47.670682+00:00", "meta": {"OBJECT_NAME": "FENGYUN 1C DEB", "OBJECT_ID": "1999-025AMK", "EPOCH": "2025-12-19T01:34:07.173120", "MEAN_MOTION": 14.23620654, "ECCENTRICITY": 0.02092952, "INCLINATION": 98.4019, "RA_OF_ASC_NODE": 27.6253, "ARG_OF_PERICENTER": 348.3373, "MEAN_ANOMALY": 39.6079, "EPHEMERIS_TYPE": 0, "CLASSIFICATION_TYPE": "U", "NORAD_CAT_ID": 30604, "ELEMENT_SET_NO": 999, "REV_AT_EPOCH": 97929, "BSTAR": 0.00023851442, "MEAN_MOTION_DOT": 6.35e-06, "MEAN_MOTION_DDOT": 0}, "tle": {"line1": "1 30604U 99025AMK 25353.06536080  .00000635  00000+0  23851-3 0  9999", "line2": "2 30604  98.4019  27.6253 0209295 348.3373  39.6079 14.23620654979292"}}, "geometry": {"type": "Point", "coordinates": [-155.4613845044548, -25.969306232325128]}}, {"type": "Feature", "properties": {"norad_id": 30606, "name": "FENGYUN 1C DEB", "group": "fengyun-1c-debris", "lat": 22.984089224148615, "lon": 0.6550683270586447, "alt_km": 699.15988267583, "timestamp": "2025-12-20T03:42:47.670692+00:00", "meta": {"OBJECT_NAME": "FENGYUN 1C DEB", "OBJECT_ID": "1999-025AMM", "EPOCH": "2025-12-19T06:28:15.169728", "MEAN_MOTION": 14.57676344, "ECCENTRICITY": 0.0214309, "INCLINATION": 98.0954, "RA_OF_ASC_NODE": 3.2544, "ARG_OF_PERICENTER": 116.9042, "MEAN_ANOMALY": 306.966, "EPHEMERIS_TYPE": 0, "CLASSIFICATION_TYPE": "U", "NORAD_CAT_ID": 30606, "ELEMENT_SET_NO": 999, "REV_AT_EPOCH": 99337, "BSTAR": 0.00041331, "MEAN_MOTION_DOT": 2.535e-05, "MEAN_MOTION_DDOT": 0}, "tle": {"line1": "1 30606U 99025AMM 25353.26962002  .00002535  00000+0  41331-3 0  9994", "line2": "2 30606  98.0954   3.2544 0214309 116.9042 306.9660 14.57676344993370"}}, "geometry": {"type": "Point", "coordinates": [0.6550683270586447, 22.984089224148615]}}, {"type": "Feature", "properties": {"norad_id": 30608, "name": "FENGYUN 1C DEB", "group": "fengyun-1c-debris", "lat": 54.98533188244999, "lon": 44.1646898731273, "alt_km": 793.8700194591474, "timestamp": "2025-12-20T03:42:47.670702+00:00", "meta": {"OBJECT_NAME": "FENGYUN 1C DEB", "OBJECT_ID": "1999-025AMP", "EPOCH": "2025-12-19T16:26:59.708256", "MEAN_MOTION": 14.28512276, "ECCENTRICITY": 0.0016292, "INCLINATION": 98.7099, "RA_OF_ASC_NODE": 56.3356, "ARG_OF_PERICENTER": 159.4445, "MEAN_ANOMALY": 4.6509, "EPHEMERIS_TYPE": 0, "CLASSIFICATION_TYPE": "U", "NORAD_CAT_ID": 30608, "ELEMENT_SET_NO": 999, "REV_AT_EPOCH": 97538, "BSTAR": 0.00082745, "MEAN_MOTION_DOT": 2.032e-05, "MEAN_MOTION_DDOT": 0}, "tle": {"line1": "1 30608U 99025AMP 25353.68541329  .00002032  00000+0  82745-3 0  9993", "line2": "2 30608  98.7099  56.3356 0016292 159.4445   4.6509 14.28512276975385"}}, "geometry": {"type": "Point", "coordinates": [44.1646898731273, 54.98533188244999]}}, {"type": "Feature", "properties": {"norad_id": 30609, "name": "FENGYUN 1C DEB", "group": "fengyun-1c-debris", "lat": -25.49000222210047, "lon": 86.31313546536731, "alt_km": 946.6353358468205, "timestamp": "2025-12-20T03:42:47.670713+00:00", "meta": {"OBJECT_NAME": "FENGYUN 1C DEB", "OBJECT_ID": "1999-025AMQ", "EPOCH": "2025-12-17T16:53:36.248064", "MEAN_MOTION": 14.11254346, "ECCENTRICITY": 0.01197276, "INCLINATION": 98.569, "RA_OF_ASC_NODE": 268.0956, "ARG_OF_PERICENTER": 39.0459, "MEAN_ANOMALY": 321.9281, "EPHEMERIS_TYPE": 0, "CLASSIFICATION_TYPE": "U", "NORAD_CAT_ID": 30609, "ELEMENT_SET_NO": 999, "REV_AT_EPOCH": 95798, "BSTAR": 0.002108733, "MEAN_MOTION_DOT": 4.032e-05, "MEAN_MOTION_DDOT": 0}, "tle": {"line1": "1 30609U 99025AMQ 25351.70389176  .00004032  00000+0  21087-2 0  9998", "line2": "2 30609  98.5690 268.0956 0119727  39.0459 321.9281 14.11254346957985"}}, "geometry": {"type": "Point", "coordinates": [86.31313546536731, -25.49000222210047]}}, {"type": "Feature", "properties": {"norad_id": 30612, "name": "FENGYUN 1C DEB", "group": "fengyun-1c-debris", "lat": 41.66231551595367, "lon": -23.216915161435633, "alt_km": 465.354808611356, "timestamp": "2025-12-20T03:42:47.670723+00:00", "meta": {"OBJECT_NAME": "FENGYUN 1C DEB", "OBJECT_ID": "1999-025AMT", "EPOCH": "2025-12-19T18:40:03.076032", "MEAN_MOTION": 15.31162689, "ECCENTRICITY": 0.0027015, "INCLINATION": 99.0823, "RA_OF_ASC_NODE": 344.5054, "ARG_OF_PERICENTER": 324.4157, "MEAN_ANOMALY": 161.3536, "EPHEMERIS_TYPE": 0, "CLASSIFICATION_TYPE": "U", "NORAD_CAT_ID": 30612, "ELEMENT_SET_NO": 999, "REV_AT_EPOCH": 365, "BSTAR": 0.0022446, "MEAN_MOTION_DOT": 0.00068782, "MEAN_MOTION_DDOT": 0}, "tle": {"line1": "1 30612U 99025AMT 25353.77781338  .00068782  00000+0  22446-2 0  9999", "line2": "2 30612  99.0823 344.5054 0027015 324.4157 161.3536 15.31162689  3652"}}, "geometry": {"type": "Point", "coordinates": [-23.216915161435633, 41.66231551595367]}}]}